{
  "norad_id": 66407,
  "name": "STARLINK-35686",
  "history": [
    {
      "epoch": "2026-03-28T10:15:37.260576Z",
      "apogee_km": 476.2859467839562,
      "perigee_km": 474.31407588705406,
      "latitude_deg": 4.264576819265714e-05,
      "longitude_deg": 150.13516602295718,
      "height_km": 475.9339631948455,
      "semi_major_axis_km": 6853.437011335504,
      "eccentricity": 0.00014386,
      "inclination_deg": 53.1598,
      "raan_deg": 129.8885,
      "arg_perigee_deg": 74.4729,
      "mean_anomaly_deg": 285.6431,
      "mean_motion_rev_day": 15.30171552
    },
    {
      "epoch": "2026-03-30T06:09:04.821120Z",
      "apogee_km": 476.10414224681335,
      "perigee_km": 474.09463627275363,
      "latitude_deg": -7.404715904149207e-06,
      "longitude_deg": -158.52664515563598,
      "height_km": 476.5413481697019,
      "semi_major_axis_km": 6853.236389259783,
      "eccentricity": 0.00014661,
      "inclination_deg": 53.1578,
      "raan_deg": 121.3941,
      "arg_perigee_deg": 122.7851,
      "mean_anomaly_deg": 237.3291,
      "mean_motion_rev_day": 15.30238744
    },
    {
      "epoch": "2026-03-30T10:51:14.603040Z",
      "apogee_km": 475.9274950246572,
      "perigee_km": 474.5292714191719,
      "latitude_deg": 2.673615584362215e-05,
      "longitude_deg": 129.8284887769009,
      "height_km": 475.9482908098284,
      "semi_major_axis_km": 6853.365383221914,
      "eccentricity": 0.00010201,
      "inclination_deg": 53.1573,
      "raan_deg": 120.4831,
      "arg_perigee_deg": 75.2277,
      "mean_anomaly_deg": 284.8837,
      "mean_motion_rev_day": 15.30195541
    },
    {
      "epoch": "2026-03-30T18:41:30.594048Z",
      "apogee_km": 476.0629697997574,
      "perigee_km": 474.3457965827856,
      "latitude_deg": 3.91637591871531e-06,
      "longitude_deg": 10.422356957866704,
      "height_km": 475.92045923052535,
      "semi_major_axis_km": 6853.341383191271,
      "eccentricity": 0.00012528,
      "inclination_deg": 53.158,
      "raan_deg": 118.9655,
      "arg_perigee_deg": 77.772,
      "mean_anomaly_deg": 282.3421,
      "mean_motion_rev_day": 15.30203579
    },
    {
      "epoch": "2026-03-31T18:12:18.594720Z",
      "apogee_km": 475.9651903588965,
      "perigee_km": 474.4738999746678,
      "latitude_deg": -2.303127333316925e-05,
      "longitude_deg": 12.205377104199952,
      "height_km": 475.9544541977657,
      "semi_major_axis_km": 6853.356545166782,
      "eccentricity": 0.0001088,
      "inclination_deg": 53.1562,
      "raan_deg": 114.4142,
      "arg_perigee_deg": 77.3694,
      "mean_anomaly_deg": 282.7428,
      "mean_motion_rev_day": 15.30198501
    },
    {
      "epoch": "2026-04-01T06:44:44.494656Z",
      "apogee_km": 476.3475146941928,
      "perigee_km": 474.1530600847709,
      "latitude_deg": 3.659728625588902e-05,
      "longitude_deg": -178.84391535327302,
      "height_km": 476.2368264126786,
      "semi_major_axis_km": 6853.387287389482,
      "eccentricity": 0.0001601,
      "inclination_deg": 53.1565,
      "raan_deg": 111.9878,
      "arg_perigee_deg": 94.6686,
      "mean_anomaly_deg": 265.4498,
      "mean_motion_rev_day": 15.30188205
    },
    {
      "epoch": "2026-04-02T07:49:36.883776Z",
      "apogee_km": 476.0786644614218,
      "perigee_km": 474.36628406318323,
      "latitude_deg": 1.8185926421635033e-05,
      "longitude_deg": 159.05233497061496,
      "height_km": 475.9768977187763,
      "semi_major_axis_km": 6853.359474262303,
      "eccentricity": 0.00012493,
      "inclination_deg": 53.1564,
      "raan_deg": 107.1324,
      "arg_perigee_deg": 80.364,
      "mean_anomaly_deg": 279.7502,
      "mean_motion_rev_day": 15.3019752
    },
    {
      "epoch": "2026-04-03T07:20:23.834688Z",
      "apogee_km": 475.991909637306,
      "perigee_km": 474.16484241805847,
      "latitude_deg": 7.814812756397176e-06,
      "longitude_deg": 160.84195257096815,
      "height_km": 475.7333472741145,
      "semi_major_axis_km": 6853.215376027682,
      "eccentricity": 0.0001333,
      "inclination_deg": 53.158,
      "raan_deg": 102.5833,
      "arg_perigee_deg": 74.5808,
      "mean_anomaly_deg": 285.534,
      "mean_motion_rev_day": 15.30245782
    },
    {
      "epoch": "2026-04-04T09:59:17.868192Z",
      "apogee_km": 476.14659124607533,
      "perigee_km": 474.2254677344499,
      "latitude_deg": 1.625086318325593e-05,
      "longitude_deg": 114.86641026444106,
      "height_km": 476.007904884367,
      "semi_major_axis_km": 6853.323029490262,
      "eccentricity": 0.00014016,
      "inclination_deg": 53.1588,
      "raan_deg": 97.4273,
      "arg_perigee_deg": 85.4681,
      "mean_anomaly_deg": 274.648,
      "mean_motion_rev_day": 15.30209726
    },
    {
      "epoch": "2026-04-05T09:30:05.691744Z",
      "apogee_km": 476.0669416538358,
      "perigee_km": 474.32797656818184,
      "latitude_deg": -2.593999183107383e-05,
      "longitude_deg": 116.65005649135308,
      "height_km": 476.0074230210883,
      "semi_major_axis_km": 6853.334459111009,
      "eccentricity": 0.00012687,
      "inclination_deg": 53.159,
      "raan_deg": 92.8759,
      "arg_perigee_deg": 84.1897,
      "mean_anomaly_deg": 275.9248,
      "mean_motion_rev_day": 15.30205898
    },
    {
      "epoch": "2026-04-05T17:20:21.663744Z",
      "apogee_km": 476.2546583211424,
      "perigee_km": 474.1356080255655,
      "latitude_deg": 5.4531806957356016e-05,
      "longitude_deg": -2.7592199128630317,
      "height_km": 476.2341417136506,
      "semi_major_axis_km": 6853.332133173354,
      "eccentricity": 0.0001546,
      "inclination_deg": 53.1591,
      "raan_deg": 91.355,
      "arg_perigee_deg": 97.6695,
      "mean_anomaly_deg": 262.4482,
      "mean_motion_rev_day": 15.30206677
    },
    {
      "epoch": "2026-04-05T17:20:21.664608Z",
      "apogee_km": 476.25500098774955,
      "perigee_km": 474.13526535895926,
      "latitude_deg": 4.995854267609499e-05,
      "longitude_deg": -2.7592269301039556,
      "height_km": 476.2341874444036,
      "semi_major_axis_km": 6853.332133173354,
      "eccentricity": 0.00015465,
      "inclination_deg": 53.1591,
      "raan_deg": 91.355,
      "arg_perigee_deg": 97.6695,
      "mean_anomaly_deg": 262.4482,
      "mean_motion_rev_day": 15.30206677
    },
    {
      "epoch": "2026-04-07T16:21:57.590784Z",
      "apogee_km": 476.3800809036293,
      "perigee_km": 474.043089036154,
      "latitude_deg": -5.650940404924653e-05,
      "longitude_deg": 0.8086806372054006,
      "height_km": 476.18626578964586,
      "semi_major_axis_km": 6853.348584969891,
      "eccentricity": 0.0001705,
      "inclination_deg": 53.1606,
      "raan_deg": 82.254,
      "arg_perigee_deg": 93.7851,
      "mean_anomaly_deg": 266.3344,
      "mean_motion_rev_day": 15.30201167
    },
    {
      "epoch": "2026-04-08T08:02:29.473440Z",
      "apogee_km": 475.9731527423628,
      "perigee_km": 474.4415673447811,
      "latitude_deg": -5.562368136808214e-05,
      "longitude_deg": 122.00036407871599,
      "height_km": 476.07729776890295,
      "semi_major_axis_km": 6853.344360043572,
      "eccentricity": 0.00011174,
      "inclination_deg": 53.1616,
      "raan_deg": 79.2223,
      "arg_perigee_deg": 87.8651,
      "mean_anomaly_deg": 272.2477,
      "mean_motion_rev_day": 15.30202582
    },
    {
      "epoch": "2026-04-09T15:23:33.402912Z",
      "apogee_km": 476.1766482741523,
      "perigee_km": 474.20974250807467,
      "latitude_deg": 6.3560159645782615e-06,
      "longitude_deg": 4.37878995696013,
      "height_km": 476.03838846406745,
      "semi_major_axis_km": 6853.330195391113,
      "eccentricity": 0.0001435,
      "inclination_deg": 53.1607,
      "raan_deg": 73.1546,
      "arg_perigee_deg": 86.9262,
      "mean_anomaly_deg": 273.1903,
      "mean_motion_rev_day": 15.30207326
    },
    {
      "epoch": "2026-04-10T07:04:05.265696Z",
      "apogee_km": 476.0622081295505,
      "perigee_km": 474.32009211378954,
      "latitude_deg": -2.5410847450470736e-06,
      "longitude_deg": 125.57014935668239,
      "height_km": 476.148918870476,
      "semi_major_axis_km": 6853.32815012167,
      "eccentricity": 0.0001271,
      "inclination_deg": 53.1592,
      "raan_deg": 70.1225,
      "arg_perigee_deg": 93.9349,
      "mean_anomaly_deg": 266.1797,
      "mean_motion_rev_day": 15.30208011
    },
    {
      "epoch": "2026-04-11T14:25:09.081120Z",
      "apogee_km": 476.7114368547773,
      "perigee_km": 473.85082012794555,
      "latitude_deg": 1.6938957104680286e-05,
      "longitude_deg": 7.946421375451412,
      "height_km": 475.9925538283795,
      "semi_major_axis_km": 6853.418128491361,
      "eccentricity": 0.0002087,
      "inclination_deg": 53.1597,
      "raan_deg": 64.0522,
      "arg_perigee_deg": 82.5494,
      "mean_anomaly_deg": 277.5744,
      "mean_motion_rev_day": 15.30177876
    },
    {
      "epoch": "2026-04-13T04:02:26.115648Z",
      "apogee_km": 476.20766367033775,
      "perigee_km": 474.19744211268426,
      "latitude_deg": -2.6995695797174876e-05,
      "longitude_deg": 154.8001544750048,
      "height_km": 476.1741508003276,
      "semi_major_axis_km": 6853.339552891511,
      "eccentricity": 0.00014666,
      "inclination_deg": 53.1591,
      "raan_deg": 56.772,
      "arg_perigee_deg": 94.2154,
      "mean_anomaly_deg": 265.9014,
      "mean_motion_rev_day": 15.30204192
    },
    {
      "epoch": "2026-04-14T12:57:33.118560Z",
      "apogee_km": 476.1263444028118,
      "perigee_km": 474.29252596368497,
      "latitude_deg": 6.943069092367156e-07,
      "longitude_deg": 13.297078257478304,
      "height_km": 476.12481968784806,
      "semi_major_axis_km": 6853.346435183248,
      "eccentricity": 0.00013379,
      "inclination_deg": 53.1586,
      "raan_deg": 50.4,
      "arg_perigee_deg": 91.0969,
      "mean_anomaly_deg": 269.0185,
      "mean_motion_rev_day": 15.30201887
    }
  ]
}